NUSAT-1 (FRESCO)        
1 41557U 16033B   21339.48929206  .00004734  00000+0  16220-3 0  9994
2 41557  97.3936  72.5797 0012175 355.7657  70.1547 15.30626222307689
BEESAT-4                
1 41619U 16040W   21338.87917738  .00003779  00000+0  14615-3 0  9994
2 41619  97.2477  30.0967 0012049  89.3008 270.9611 15.26748748291008
CAS-2T & KS-1Q          
1 41847U 16066G   21338.92170655  .00000205  00000+0  40118-4 0  9999
2 41847  98.5799  38.5699 0365940  71.4622 292.5952 14.38295689266386
NAYIF-1 (EO-88)         
1 42017U 17008BX  21338.74222901  .00005583  00000+0  19734-3 0  9991
2 42017  97.2976  43.2421 0004841 208.5693 151.5283 15.29576818267273
ZHUHAI-1 02 (CAS-4B)    
1 42759U 17034B   21339.45424550  .00001415  00000+0  97380-4 0  9990
2 42759  43.0183 320.7523 0007079 160.1540 340.4262 15.10593946247007
ZHUHAI-1 01 (CAS-4A)    
1 42761U 17034D   21339.43430146  .00001485  00000+0  10131-3 0  9994
2 42761  43.0185 319.7890 0007377 160.1087 334.8942 15.10681646247001
MAX VALIER SAT          
1 42778U 17036P   21338.89176069  .00002380  00000+0  99832-4 0  9995
2 42778  97.2339  21.7820 0009990 298.5685  61.4547 15.24390704247244
RADFXSAT (FOX-1B)       
1 43017U 17073E   21339.00883707  .00001039  00000+0  83613-4 0  9991
2 43017  97.6925 236.1157 0254864 103.5715 259.4023 14.79987700218346
FOX-1D (AO-92)          
1 43137U 18004AC  21338.86173936  .00002827  00000+0  11211-3 0  9998
2 43137  97.3923  51.0879 0007758 340.5560  19.5382 15.26182262216645
DIWATA-2B               
1 43678U 18084H   21339.49404342 -.00000063  00000+0 -44586-6 0  9990
2 43678  97.9453 105.8945 0009217 198.8793 161.2063 14.91842210168931
ES'HAIL 2               
1 43700U 18090A   21339.10188292  .00000154  00000+0  00000+0 0  9999
2 43700   0.0101 317.8111 0001749 313.7434 225.0583  1.00269599 11329
FOX-1CLIFF (AO-95)      
1 43770U 18099N   21338.87446143  .00001286  00000+0  12080-3 0  9992
2 43770  97.6477  45.1482 0013908 201.7861 158.2770 14.95575712163920
ITASAT 1                
1 43786U 18099AE  21339.16318951  .00000345  00000+0  35962-4 0  9997
2 43786  97.6500  46.2265 0014634 194.2411 165.8400 14.95837609164009
JY1SAT (JO-97)          
1 43803U 18099AX  21339.16325999  .00000478  00000+0  47458-4 0  9997
2 43803  97.6462  45.9644 0014569 193.8154 166.2671 14.96138190164015
UWE-4                   
1 43880U 18111E   21338.69754168  .00001564  00000+0  14024-3 0  9997
2 43880  97.6783 243.4297 0010308 251.8715 108.1385 14.97163090160550
NEXUS (FO-99)           
1 43937U 19003F   21338.85385023  .00004226  00000+0  16162-3 0  9992
2 43937  97.1563  15.1190 0023987 125.1764 235.1727 15.26843967160253
PSAT2 (NO-104)          
1 44354U 19036R   21338.92504342  .00019447  00000+0  23389-3 0  9997
2 44354  28.5282  65.0747 0296953 333.2415  25.3132 15.21037057134873
BRICSAT2 (NO-103)       
1 44355U 19036S   21338.71038851  .00054893 -53194-5  43781-3 0  9993
2 44355  28.5245 346.3853 0201680 101.4748 260.8574 15.47112582135651
JAISAT-1                
1 44419U 19038F   21338.88146403  .00002169  00000+0  12071-3 0  9995
2 44419  97.6119 303.2408 0022476  84.6353 275.7442 15.14531564133583
DUCHIFAT-3              
1 44854U 19089C   21338.91210114  .00001207  00000+0  10195-3 0  9996
2 44854  36.9630 172.3616 0006916  69.7741 290.3824 14.99836167108704
CAS-6 (TO-108)          
1 44881U 19093C   21339.27885791  .00000195  00000+0  31513-4 0  9993
2 44881  97.9126  56.1350 0016494  97.0101 263.2992 14.81518561106025
RS-44 & BREEZE-KM R/B   
1 44909U 19096E   21338.83052323  .00000029  00000+0  64813-4 0  9990
2 44909  82.5217 359.6041 0218317  54.9756 307.1618 12.79711390 90611
ORBITAL FACTORY 2 (OF-2)
1 45113U 19071C   21338.60516495  .00008375  00000+0  23179-3 0  9992
2 45113  51.6419 291.4698 0010937 183.0823 177.0095 15.37806761103339
HUSKYSAT-1 (HO-107)     
1 45119U 19071J   21338.42591814  .00008165  00000+0  22731-3 0  9996
2 45119  51.6413 291.7617 0010573 178.7001 181.4012 15.37663407103301
BY70-2                  
1 45857U 20042B   21339.46583981  .00002514  00000+0  35819-3 0  9999
2 45857  97.9729  53.3947 0010957  30.8431 329.3429 14.77652668 76799
SALSAT                  
1 46495U 20068K   21338.89692034  .00001340  00000+0  10205-3 0  9990
2 46495  97.7075 275.5206 0015993 211.5275 148.4993 15.03704323 64941
BY70-3                  
1 46839U 20079N   21339.37866624  .00007795  00000+0  22838-3 0  9991
2 46839  97.2255  49.8587 0005743 324.7448 165.2759 15.35463878 60410
RADFXSAT-2 (AO-109)     
1 47311U 21002C   21338.43873703  .00003027  00000+0  13932-3 0  9995
2 47311  60.6878  14.5173 0035409 133.0911 227.3149 15.22510105 48746
UVSQ-SAT                
1 47438U 21006AB  21339.43202341  .00002001  00000+0  11463-3 0  9992
2 47438  97.4668  37.4441 0011523 221.8948 138.1403 15.13706736 47917
DIY-1 (ARDUIQUBE)       
1 47963U 21022AH  21339.25141904  .00004206  00000+0  27228-3 0  9995
2 47963  97.5463 238.5337 0021000  80.4479 279.9121 15.08519337 37633
